start=new Date('2021-12-10T00:00:00.000Z').valueOf();
sats=[{"ARG_OF_PERICENTER":"90.7837","ECCENTRICITY":"0.00018590","REV_AT_EPOCH":"7081","TLE_LINE2":"2 46344  53.0537 119.4190 0001859  90.7837 269.3365 15.06399941 70815","CENTER_NAME":"EARTH","SITE":"AFETR","TLE_LINE1":"1 46344U 20062V   21343.66814544  .00000702  00000-0  66020-4 0  9999","DECAY_DATE":null,"PERIOD":"95.592","EPOCH":"2021-12-09T16:02:07.766016","EPHEMERIS_TYPE":"0","CLASSIFICATION_TYPE":"U","BSTAR":"0.00006602000000","ELEMENT_SET_NO":"999","GP_ID":"191398855","TIME_SYSTEM":"UTC","OBJECT_ID":"2020-062V","LAUNCH_DATE":"2020-09-03","MEAN_MOTION_DOT":"0.00000702","MEAN_ANOMALY":"269.3365","OBJECT_TYPE":"PAYLOAD","INCLINATION":"53.0537","OBJECT_NAME":"STARLINK-1765","APOAPSIS":"548.501","PERIAPSIS":"545.926","REF_FRAME":"TEME","SEMIMAJOR_AXIS":"6925.349","MEAN_ELEMENT_THEORY":"SGP4","FILE":"3236488","NORAD_CAT_ID":"46344","RA_OF_ASC_NODE":"119.4190","MEAN_MOTION_DDOT":"0.0000000000000","COUNTRY_CODE":"US","MEAN_MOTION":"15.06399941","RCS_SIZE":"LARGE"},{"MEAN_MOTION_DDOT":"0.0000000000000","RA_OF_ASC_NODE":"139.1099","FILE":"3236488","NORAD_CAT_ID":"46345","MEAN_MOTION":"15.06390950","RCS_SIZE":"LARGE","COUNTRY_CODE":"US","INCLINATION":"53.0537","OBJECT_NAME":"STARLINK-1767","APOAPSIS":"548.562","PERIAPSIS":"545.921","OBJECT_TYPE":"PAYLOAD","MEAN_ANOMALY":"267.7316","SEMIMAJOR_AXIS":"6925.376","MEAN_ELEMENT_THEORY":"SGP4","REF_FRAME":"TEME","BSTAR":"0.00006209200000","CLASSIFICATION_TYPE":"U","GP_ID":"191399605","ELEMENT_SET_NO":"999","MEAN_MOTION_DOT":"0.00000643","TIME_SYSTEM":"UTC","OBJECT_ID":"2020-062W","LAUNCH_DATE":"2020-09-03","SITE":"AFETR","TLE_LINE1":"1 46345U 20062W   21343.73637064  .00000643  00000-0  62092-4 0  9997","REV_AT_EPOCH":"7054","TLE_LINE2":"2 46345  53.0537 139.1099 0001907  92.3891 267.7316 15.06390950 70544","CENTER_NAME":"EARTH","DECAY_DATE":null,"ARG_OF_PERICENTER":"92.3891","ECCENTRICITY":"0.00019070","EPHEMERIS_TYPE":"0","PERIOD":"95.593","EPOCH":"2021-12-09T17:40:22.423296"},{"COUNTRY_CODE":"US","MEAN_MOTION":"15.34268022","RCS_SIZE":"LARGE","FILE":"3236488","NORAD_CAT_ID":"46346","RA_OF_ASC_NODE":"21.1352","MEAN_MOTION_DDOT":"0.0000000000000","REF_FRAME":"TEME","MEAN_ELEMENT_THEORY":"SGP4","SEMIMAJOR_AXIS":"6841.233","OBJECT_TYPE":"PAYLOAD","MEAN_ANOMALY":"323.5618","PERIAPSIS":"461.859","APOAPSIS":"464.336","OBJECT_NAME":"STARLINK-1546","INCLINATION":"53.0537","OBJECT_ID":"2020-062X","LAUNCH_DATE":"2020-09-03","TIME_SYSTEM":"UTC","MEAN_MOTION_DOT":"-0.00009233","ELEMENT_SET_NO":"999","GP_ID":"191398353","CLASSIFICATION_TYPE":"U","BSTAR":"-0.00026352000000","EPOCH":"2021-12-09T11:01:29.660448","PERIOD":"93.856","EPHEMERIS_TYPE":"0","ECCENTRICITY":"0.00018100","ARG_OF_PERICENTER":"36.5507","DECAY_DATE":null,"TLE_LINE2":"2 46346  53.0537  21.1352 0001810  36.5507 323.5618 15.34268022 72187","REV_AT_EPOCH":"7218","CENTER_NAME":"EARTH","TLE_LINE1":"1 46346U 20062X   21343.45937107 -.00009233  00000-0 -26352-3 0  9992","SITE":"AFETR"},{"OBJECT_NAME":"STARLINK-1547","INCLINATION":"53.0550","APOAPSIS":"548.147","PERIAPSIS":"546.327","MEAN_ANOMALY":"265.0264","OBJECT_TYPE":"PAYLOAD","SEMIMAJOR_AXIS":"6925.372","MEAN_ELEMENT_THEORY":"SGP4","REF_FRAME":"TEME","RA_OF_ASC_NODE":"94.5908","MEAN_MOTION_DDOT":"0.0000000000000","NORAD_CAT_ID":"46347","FILE":"3236488","MEAN_MOTION":"15.06392464","RCS_SIZE":"LARGE","COUNTRY_CODE":"US","REV_AT_EPOCH":"7114","TLE_LINE2":"2 46347  53.0550  94.5908 0001314  95.0875 265.0264 15.06392464 71140","CENTER_NAME":"EARTH","TLE_LINE1":"1 46347U 20062Y   21343.62805964  .00001218  00000-0  10065-3 0  9994","SITE":"AFETR","DECAY_DATE":null,"ARG_OF_PERICENTER":"95.0875","ECCENTRICITY":"0.00013140","EPHEMERIS_TYPE":"0","EPOCH":"2021-12-09T15:04:24.352896","PERIOD":"95.593","CLASSIFICATION_TYPE":"U","BSTAR":"0.00010065000000","ELEMENT_SET_NO":"999","GP_ID":"191398104","MEAN_MOTION_DOT":"0.00001218","TIME_SYSTEM":"UTC","OBJECT_ID":"2020-062Y","LAUNCH_DATE":"2020-09-03"},{"PERIAPSIS":"545.366","APOAPSIS":"549.089","INCLINATION":"53.0541","OBJECT_NAME":"STARLINK-1553","OBJECT_TYPE":"PAYLOAD","MEAN_ANOMALY":"280.7722","MEAN_ELEMENT_THEORY":"SGP4","SEMIMAJOR_AXIS":"6925.363","REF_FRAME":"TEME","MEAN_MOTION_DDOT":"0.0000000000000","RA_OF_ASC_NODE":"119.1012","NORAD_CAT_ID":"46348","FILE":"3236488","RCS_SIZE":"LARGE","MEAN_MOTION":"15.06395418","COUNTRY_CODE":"US","DECAY_DATE":null,"SITE":"AFETR","TLE_LINE1":"1 46348U 20062Z   21343.73818424 -.00001045  00000-0 -51263-4 0  9998","TLE_LINE2":"2 46348  53.0541 119.1012 0002688  79.3570 280.7722 15.06395418 70822","CENTER_NAME":"EARTH","REV_AT_EPOCH":"7082","ECCENTRICITY":"0.00026880","ARG_OF_PERICENTER":"79.3570","EPHEMERIS_TYPE":"0","PERIOD":"95.592","EPOCH":"2021-12-09T17:42:59.118336","GP_ID":"191399355","ELEMENT_SET_NO":"999","BSTAR":"-0.00005126300000","CLASSIFICATION_TYPE":"U","MEAN_MOTION_DOT":"-0.00001045","LAUNCH_DATE":"2020-09-03","OBJECT_ID":"2020-062Z","TIME_SYSTEM":"UTC"},{"MEAN_MOTION_DOT":"0.00001040","TIME_SYSTEM":"UTC","LAUNCH_DATE":"2020-09-03","OBJECT_ID":"2020-062AA","BSTAR":"0.00008869100000","CLASSIFICATION_TYPE":"U","GP_ID":"191399106","ELEMENT_SET_NO":"999","EPHEMERIS_TYPE":"0","PERIOD":"95.592","EPOCH":"2021-12-09T17:38:19.735296","TLE_LINE1":"1 46349U 20062AA  21343.73495064  .00001040  00000-0  88691-4 0  9998","SITE":"AFETR","TLE_LINE2":"2 46349  53.0680  94.0677 0001352  87.1124 273.0020 15.06400012 71176","CENTER_NAME":"EARTH","REV_AT_EPOCH":"7117","DECAY_DATE":null,"ARG_OF_PERICENTER":"87.1124","ECCENTRICITY":"0.00013520","RCS_SIZE":"LARGE","MEAN_MOTION":"15.06400012","COUNTRY_CODE":"US","MEAN_MOTION_DDOT":"0.0000000000000","RA_OF_ASC_NODE":"94.0677","FILE":"3236488","NORAD_CAT_ID":"46349","SEMIMAJOR_AXIS":"6925.349","MEAN_ELEMENT_THEORY":"SGP4","REF_FRAME":"TEME","INCLINATION":"53.0680","OBJECT_NAME":"STARLINK-1575","PERIAPSIS":"546.277","APOAPSIS":"548.150","MEAN_ANOMALY":"273.0020","OBJECT_TYPE":"PAYLOAD"},{"REF_FRAME":"TEME","SEMIMAJOR_AXIS":"6925.381","MEAN_ELEMENT_THEORY":"SGP4","OBJECT_TYPE":"PAYLOAD","MEAN_ANOMALY":"263.4633","INCLINATION":"53.0557","OBJECT_NAME":"STARLINK-1617","PERIAPSIS":"545.870","APOAPSIS":"548.621","COUNTRY_CODE":"US","MEAN_MOTION":"15.06389547","RCS_SIZE":"LARGE","NORAD_CAT_ID":"46350","FILE":"3236488","RA_OF_ASC_NODE":"139.5720","MEAN_MOTION_DDOT":"0.0000000000000","EPOCH":"2021-12-09T15:11:44.469312","PERIOD":"95.593","EPHEMERIS_TYPE":"0","ARG_OF_PERICENTER":"96.6582","ECCENTRICITY":"0.00019860","TLE_LINE2":"2 46350  53.0557 139.5720 0001986  96.6582 263.4633 15.06389547 70532","REV_AT_EPOCH":"7053","CENTER_NAME":"EARTH","SITE":"AFETR","TLE_LINE1":"1 46350U 20062AB  21343.63315358  .00000527  00000-0  54276-4 0  9997","DECAY_DATE":null,"TIME_SYSTEM":"UTC","LAUNCH_DATE":"2020-09-03","OBJECT_ID":"2020-062AB","MEAN_MOTION_DOT":"0.00000527","CLASSIFICATION_TYPE":"U","BSTAR":"0.00005427600000","ELEMENT_SET_NO":"999","GP_ID":"191397854"},{"MEAN_ELEMENT_THEORY":"SGP4","SEMIMAJOR_AXIS":"6925.392","REF_FRAME":"TEME","APOAPSIS":"548.259","PERIAPSIS":"546.255","OBJECT_NAME":"STARLINK-1646","INCLINATION":"53.0534","OBJECT_TYPE":"PAYLOAD","MEAN_ANOMALY":"264.2127","MEAN_MOTION":"15.06385914","RCS_SIZE":"LARGE","COUNTRY_CODE":"US","MEAN_MOTION_DDOT":"0.0000000000000","RA_OF_ASC_NODE":"118.9581","FILE":"3236488","NORAD_CAT_ID":"46351","EPHEMERIS_TYPE":"0","EPOCH":"2021-12-09T18:30:45.532512","PERIOD":"95.593","DECAY_DATE":null,"SITE":"AFETR","TLE_LINE1":"1 46351U 20062AC  21343.77136033  .00000641  00000-0  61915-4 0  9999","CENTER_NAME":"EARTH","TLE_LINE2":"2 46351  53.0534 118.9581 0001447  95.9027 264.2127 15.06385914 70836","REV_AT_EPOCH":"7083","ECCENTRICITY":"0.00014470","ARG_OF_PERICENTER":"95.9027","MEAN_MOTION_DOT":"0.00000641","LAUNCH_DATE":"2020-09-03","OBJECT_ID":"2020-062AC","TIME_SYSTEM":"UTC","GP_ID":"191398604","ELEMENT_SET_NO":"999","BSTAR":"0.00006191500000","CLASSIFICATION_TYPE":"U"},{"REV_AT_EPOCH":"7083","TLE_LINE2":"2 46352  53.0541 119.0377 0001815  97.8579 262.2616 15.06398273 70835","CENTER_NAME":"EARTH","SITE":"AFETR","TLE_LINE1":"1 46352U 20062AD  21343.75292134  .00000816  00000-0  73689-4 0  9998","DECAY_DATE":null,"ARG_OF_PERICENTER":"97.8579","ECCENTRICITY":"0.00018150","EPHEMERIS_TYPE":"0","PERIOD":"95.592","EPOCH":"2021-12-09T18:04:12.403776","CLASSIFICATION_TYPE":"U","BSTAR":"0.00007368900000","ELEMENT_SET_NO":"999","GP_ID":"191398856","MEAN_MOTION_DOT":"0.00000816","TIME_SYSTEM":"UTC","OBJECT_ID":"2020-062AD","LAUNCH_DATE":"2020-09-03","INCLINATION":"53.0541","OBJECT_NAME":"STARLINK-1653","PERIAPSIS":"545.962","APOAPSIS":"548.476","OBJECT_TYPE":"PAYLOAD","MEAN_ANOMALY":"262.2616","SEMIMAJOR_AXIS":"6925.354","MEAN_ELEMENT_THEORY":"SGP4","REF_FRAME":"TEME","RA_OF_ASC_NODE":"119.0377","MEAN_MOTION_DDOT":"0.0000000000000","NORAD_CAT_ID":"46352","FILE":"3236488","RCS_SIZE":"LARGE","MEAN_MOTION":"15.06398273","COUNTRY_CODE":"US"},{"COUNTRY_CODE":"US","MEAN_MOTION":"15.06385497","RCS_SIZE":"LARGE","NORAD_CAT_ID":"46353","FILE":"3236488","MEAN_MOTION_DDOT":"0.0000000000000","RA_OF_ASC_NODE":"139.3534","REF_FRAME":"TEME","SEMIMAJOR_AXIS":"6925.393","MEAN_ELEMENT_THEORY":"SGP4","OBJECT_TYPE":"PAYLOAD","MEAN_ANOMALY":"263.8980","INCLINATION":"53.0544","OBJECT_NAME":"STARLINK-1656","PERIAPSIS":"546.020","APOAPSIS":"548.496","TIME_SYSTEM":"UTC","OBJECT_ID":"2020-062AE","LAUNCH_DATE":"2020-09-03","MEAN_MOTION_DOT":"0.00000462","BSTAR":"0.00004992300000","CLASSIFICATION_TYPE":"U","GP_ID":"191399606","ELEMENT_SET_NO":"999","PERIOD":"95.593","EPOCH":"2021-12-09T16:26:01.769280","EPHEMERIS_TYPE":"0","ARG_OF_PERICENTER":"96.2212","ECCENTRICITY":"0.00017870","TLE_LINE1":"1 46353U 20062AE  21343.68474270  .00000462  00000-0  49923-4 0  9995","SITE":"AFETR","CENTER_NAME":"EARTH","TLE_LINE2":"2 46353  53.0544 139.3534 0001787  96.2212 263.8980 15.06385497 70536","REV_AT_EPOCH":"7053","DECAY_DATE":null}];
